start=new Date('2023-01-08T00:00:00.000Z').valueOf();
sats=[{"OBJECT_TYPE":"PAYLOAD","LAUNCH_DATE":"2022-08-31","NORAD_CAT_ID":"53688","DECAY_DATE":null,"RA_OF_ASC_NODE":"250.9936","SEMIMAJOR_AXIS":"6941.138","CENTER_NAME":"EARTH","GP_ID":"222427533","RCS_SIZE":"LARGE","MEAN_ANOMALY":"296.4917","SITE":"AFWTR","COUNTRY_CODE":"US","PERIOD":"95.919","MEAN_MOTION_DDOT":"0.0000000000000","TIME_SYSTEM":"UTC","ELEMENT_SET_NO":"999","MEAN_MOTION":"15.01262810","OBJECT_NAME":"STARLINK-4571","CLASSIFICATION_TYPE":"U","ARG_OF_PERICENTER":"63.6499","ECCENTRICITY":"0.00018740","MEAN_MOTION_DOT":"0.00014267","TLE_LINE2":"2 53688  97.6536 250.9936 0001874  63.6499 296.4917 15.01262810 19643","FILE":"3735488","REV_AT_EPOCH":"1964","APOAPSIS":"564.304","REF_FRAME":"TEME","TLE_LINE1":"1 53688U 22105AS  23007.63385713  .00014267  00000-0  11130-2 0  9996","PERIAPSIS":"561.702","EPOCH":"2023-01-07T15:12:45.256032","EPHEMERIS_TYPE":"0","MEAN_ELEMENT_THEORY":"SGP4","OBJECT_ID":"2022-105AS","INCLINATION":"97.6536","BSTAR":"0.00111300000000"},{"INCLINATION":"97.6540","BSTAR":"0.00069961000000","ECCENTRICITY":"0.00019000","MEAN_MOTION_DOT":"0.00008939","FILE":"3735488","TLE_LINE2":"2 53689  97.6540 251.2566 0001900  72.5101 287.6330 15.01263314 19686","CLASSIFICATION_TYPE":"U","ARG_OF_PERICENTER":"72.5101","EPHEMERIS_TYPE":"0","OBJECT_ID":"2022-105AT","MEAN_ELEMENT_THEORY":"SGP4","PERIAPSIS":"561.683","TLE_LINE1":"1 53689U 22105AT  23007.90231796  .00008939  00000-0  69961-3 0  9993","REV_AT_EPOCH":"1968","APOAPSIS":"564.320","REF_FRAME":"TEME","EPOCH":"2023-01-07T21:39:20.271744","MEAN_MOTION":"15.01263314","ELEMENT_SET_NO":"999","COUNTRY_CODE":"US","TIME_SYSTEM":"UTC","MEAN_MOTION_DDOT":"0.0000000000000","PERIOD":"95.919","OBJECT_NAME":"STARLINK-4562","DECAY_DATE":null,"NORAD_CAT_ID":"53689","LAUNCH_DATE":"2022-08-31","OBJECT_TYPE":"PAYLOAD","RCS_SIZE":"LARGE","SITE":"AFWTR","MEAN_ANOMALY":"287.6330","SEMIMAJOR_AXIS":"6941.137","RA_OF_ASC_NODE":"251.2566","GP_ID":"222426391","CENTER_NAME":"EARTH"},{"DECAY_DATE":null,"LAUNCH_DATE":"2022-08-31","NORAD_CAT_ID":"53690","OBJECT_TYPE":"PAYLOAD","RCS_SIZE":"LARGE","MEAN_ANOMALY":"248.6241","SITE":"AFWTR","RA_OF_ASC_NODE":"250.9902","SEMIMAJOR_AXIS":"6941.087","GP_ID":"222426159","CENTER_NAME":"EARTH","MEAN_MOTION":"15.01279324","ELEMENT_SET_NO":"999","COUNTRY_CODE":"US","MEAN_MOTION_DDOT":"0.0000000000000","TIME_SYSTEM":"UTC","PERIOD":"95.918","OBJECT_NAME":"STARLINK-4570","ECCENTRICITY":"0.00023490","MEAN_MOTION_DOT":"0.00008204","FILE":"3735488","TLE_LINE2":"2 53690  97.6525 250.9902 0002349 111.5234 248.6241 15.01279324 19642","CLASSIFICATION_TYPE":"U","ARG_OF_PERICENTER":"111.5234","EPHEMERIS_TYPE":"0","OBJECT_ID":"2022-105AU","MEAN_ELEMENT_THEORY":"SGP4","PERIAPSIS":"561.322","TLE_LINE1":"1 53690U 22105AU  23007.63200653  .00008204  00000-0  64223-3 0  9994","REV_AT_EPOCH":"1964","APOAPSIS":"564.583","REF_FRAME":"TEME","EPOCH":"2023-01-07T15:10:05.364192","INCLINATION":"97.6525","BSTAR":"0.00064223000000"},{"MEAN_ANOMALY":"273.3345","SITE":"AFWTR","RCS_SIZE":"LARGE","GP_ID":"222426848","CENTER_NAME":"EARTH","RA_OF_ASC_NODE":"250.9946","SEMIMAJOR_AXIS":"6941.172","DECAY_DATE":null,"NORAD_CAT_ID":"53691","LAUNCH_DATE":"2022-08-31","OBJECT_TYPE":"PAYLOAD","OBJECT_NAME":"STARLINK-4560","MEAN_MOTION":"15.01251985","ELEMENT_SET_NO":"999","MEAN_MOTION_DDOT":"0.0000000000000","TIME_SYSTEM":"UTC","PERIOD":"95.920","COUNTRY_CODE":"US","OBJECT_ID":"2022-105AV","MEAN_ELEMENT_THEORY":"SGP4","EPHEMERIS_TYPE":"0","EPOCH":"2023-01-07T15:10:27.478272","PERIAPSIS":"561.804","TLE_LINE1":"1 53691U 22105AV  23007.63226248  .00001626  00000-0  13121-3 0  9995","REF_FRAME":"TEME","APOAPSIS":"564.269","REV_AT_EPOCH":"1964","FILE":"3735488","TLE_LINE2":"2 53691  97.6557 250.9946 0001775  86.8082 273.3345 15.01251985 19646","ECCENTRICITY":"0.00017750","MEAN_MOTION_DOT":"0.00001626","ARG_OF_PERICENTER":"86.8082","CLASSIFICATION_TYPE":"U","BSTAR":"0.00013121000000","INCLINATION":"97.6557"},{"BSTAR":"-0.00009576100000","INCLINATION":"97.6554","OBJECT_ID":"2022-105AW","MEAN_ELEMENT_THEORY":"SGP4","EPHEMERIS_TYPE":"0","EPOCH":"2023-01-07T15:07:25.036032","TLE_LINE1":"1 53692U 22105AW  23007.63015088 -.00001289  00000-0 -95761-4 0  9992","PERIAPSIS":"561.552","APOAPSIS":"564.451","REF_FRAME":"TEME","REV_AT_EPOCH":"1964","FILE":"3735488","TLE_LINE2":"2 53692  97.6554 250.9893 0002088  43.6754 316.4635 15.01263431 19640","MEAN_MOTION_DOT":"-0.00001289","ECCENTRICITY":"0.00020880","ARG_OF_PERICENTER":"43.6754","CLASSIFICATION_TYPE":"U","OBJECT_NAME":"STARLINK-4572","MEAN_MOTION":"15.01263431","ELEMENT_SET_NO":"999","MEAN_MOTION_DDOT":"0.0000000000000","TIME_SYSTEM":"UTC","PERIOD":"95.919","COUNTRY_CODE":"US","SITE":"AFWTR","MEAN_ANOMALY":"316.4635","RCS_SIZE":"LARGE","CENTER_NAME":"EARTH","GP_ID":"222427077","RA_OF_ASC_NODE":"250.9893","SEMIMAJOR_AXIS":"6941.136","DECAY_DATE":null,"NORAD_CAT_ID":"53692","LAUNCH_DATE":"2022-08-31","OBJECT_TYPE":"PAYLOAD"},{"MEAN_MOTION":"15.01259104","ELEMENT_SET_NO":"999","COUNTRY_CODE":"US","TIME_SYSTEM":"UTC","MEAN_MOTION_DDOT":"0.0000000000000","PERIOD":"95.919","OBJECT_NAME":"STARLINK-4566","DECAY_DATE":null,"LAUNCH_DATE":"2022-08-31","NORAD_CAT_ID":"53693","OBJECT_TYPE":"PAYLOAD","RCS_SIZE":"LARGE","MEAN_ANOMALY":"319.6237","SITE":"AFWTR","RA_OF_ASC_NODE":"250.9900","SEMIMAJOR_AXIS":"6941.150","CENTER_NAME":"EARTH","GP_ID":"222425930","INCLINATION":"97.6552","BSTAR":"0.00090792000000","MEAN_MOTION_DOT":"0.00011622","ECCENTRICITY":"0.00021900","FILE":"3735488","TLE_LINE2":"2 53693  97.6552 250.9900 0002190  40.5150 319.6237 15.01259104 19643","CLASSIFICATION_TYPE":"U","ARG_OF_PERICENTER":"40.5150","EPHEMERIS_TYPE":"0","MEAN_ELEMENT_THEORY":"SGP4","OBJECT_ID":"2022-105AX","TLE_LINE1":"1 53693U 22105AX  23007.62830030  .00011622  00000-0  90792-3 0  9992","PERIAPSIS":"561.494","REV_AT_EPOCH":"1964","APOAPSIS":"564.535","REF_FRAME":"TEME","EPOCH":"2023-01-07T15:04:45.145920"},{"SITE":"AFETR","MEAN_ANOMALY":"342.5171","RCS_SIZE":"LARGE","GP_ID":"222427534","CENTER_NAME":"EARTH","SEMIMAJOR_AXIS":"6917.879","RA_OF_ASC_NODE":"37.3538","NORAD_CAT_ID":"53700","LAUNCH_DATE":"2022-09-05","DECAY_DATE":null,"OBJECT_TYPE":"PAYLOAD","OBJECT_NAME":"STARLINK-4725","ELEMENT_SET_NO":"999","MEAN_MOTION":"15.08840546","PERIOD":"95.438","TIME_SYSTEM":"UTC","MEAN_MOTION_DDOT":"0.0000000000000","COUNTRY_CODE":"US","MEAN_ELEMENT_THEORY":"SGP4","OBJECT_ID":"2022-107A","EPHEMERIS_TYPE":"0","EPOCH":"2023-01-07T18:29:39.160032","APOAPSIS":"541.100","REV_AT_EPOCH":"2020","REF_FRAME":"TEME","PERIAPSIS":"538.388","TLE_LINE1":"1 53700U 22107A   23007.77059213 -.00001187  00000-0 -56512-4 0  9995","TLE_LINE2":"2 53700  53.2194  37.3538 0001960  17.5889 342.5171 15.08840546 20202","FILE":"3735488","ECCENTRICITY":"0.00019600","MEAN_MOTION_DOT":"-0.00001187","ARG_OF_PERICENTER":"17.5889","CLASSIFICATION_TYPE":"U","BSTAR":"-0.00005651200000","INCLINATION":"53.2194"},{"MEAN_ANOMALY":"332.7766","SITE":"AFETR","RCS_SIZE":"LARGE","CENTER_NAME":"EARTH","GP_ID":"222426392","RA_OF_ASC_NODE":"37.3272","SEMIMAJOR_AXIS":"6917.904","LAUNCH_DATE":"2022-09-05","NORAD_CAT_ID":"53701","DECAY_DATE":null,"OBJECT_TYPE":"PAYLOAD","OBJECT_NAME":"STARLINK-4711","ELEMENT_SET_NO":"999","MEAN_MOTION":"15.08832133","PERIOD":"95.438","MEAN_MOTION_DDOT":"0.0000000000000","TIME_SYSTEM":"UTC","COUNTRY_CODE":"US","MEAN_ELEMENT_THEORY":"SGP4","OBJECT_ID":"2022-107B","EPHEMERIS_TYPE":"0","EPOCH":"2023-01-07T18:24:21.361824","REV_AT_EPOCH":"2020","APOAPSIS":"541.136","REF_FRAME":"TEME","TLE_LINE1":"1 53701U 22107B   23007.76691391 -.00000606  00000-0 -19996-4 0  9994","PERIAPSIS":"538.402","TLE_LINE2":"2 53701  53.2173  37.3272 0001976  27.3330 332.7766 15.08832133 20206","FILE":"3735488","ECCENTRICITY":"0.00019760","MEAN_MOTION_DOT":"-0.00000606","ARG_OF_PERICENTER":"27.3330","CLASSIFICATION_TYPE":"U","BSTAR":"-0.00001999600000","INCLINATION":"53.2173"},{"MEAN_ELEMENT_THEORY":"SGP4","OBJECT_ID":"2022-107C","EPHEMERIS_TYPE":"0","EPOCH":"2023-01-08T00:00:00.999648","PERIAPSIS":"538.382","TLE_LINE1":"1 53702U 22107C   23008.00001157  .00002352  00000-0  16563-3 0  9992","REF_FRAME":"TEME","APOAPSIS":"540.873","REV_AT_EPOCH":"130","FILE":"3735488","TLE_LINE2":"2 53702  53.2150  21.8405 0001801  60.6700 223.2014 15.08878604  1309","MEAN_MOTION_DOT":"0.00002352","ECCENTRICITY":"0.00018010","ARG_OF_PERICENTER":"60.6700","CLASSIFICATION_TYPE":"U","BSTAR":"0.00016563000000","INCLINATION":"53.2150","MEAN_ANOMALY":"223.2014","SITE":"AFETR","RCS_SIZE":"LARGE","GP_ID":"222426160","CENTER_NAME":"EARTH","SEMIMAJOR_AXIS":"6917.762","RA_OF_ASC_NODE":"21.8405","DECAY_DATE":null,"NORAD_CAT_ID":"53702","LAUNCH_DATE":"2022-09-05","OBJECT_TYPE":"PAYLOAD","OBJECT_NAME":"STARLINK-4724","MEAN_MOTION":"15.08878604","ELEMENT_SET_NO":"999","TIME_SYSTEM":"UTC","MEAN_MOTION_DDOT":"0.0000000000000","PERIOD":"95.435","COUNTRY_CODE":"US"},{"OBJECT_TYPE":"PAYLOAD","LAUNCH_DATE":"2022-09-05","NORAD_CAT_ID":"53703","DECAY_DATE":null,"GP_ID":"222426849","CENTER_NAME":"EARTH","SEMIMAJOR_AXIS":"6917.946","RA_OF_ASC_NODE":"37.4319","MEAN_ANOMALY":"322.3686","SITE":"AFETR","RCS_SIZE":"LARGE","PERIOD":"95.439","MEAN_MOTION_DDOT":"0.0000000000000","TIME_SYSTEM":"UTC","COUNTRY_CODE":"US","ELEMENT_SET_NO":"999","MEAN_MOTION":"15.08818555","OBJECT_NAME":"STARLINK-4731","ARG_OF_PERICENTER":"37.7463","CLASSIFICATION_TYPE":"U","TLE_LINE2":"2 53703  53.2204  37.4319 0002235  37.7463 322.3686 15.08818555 20205","FILE":"3735488","ECCENTRICITY":"0.00022350","MEAN_MOTION_DOT":"0.00000036","EPOCH":"2023-01-07T18:46:58.628928","REV_AT_EPOCH":"2020","APOAPSIS":"541.357","REF_FRAME":"TEME","TLE_LINE1":"1 53703U 22107D   23007.78262302  .00000036  00000-0  20369-4 0  9995","PERIAPSIS":"538.265","MEAN_ELEMENT_THEORY":"SGP4","OBJECT_ID":"2022-107D","EPHEMERIS_TYPE":"0","INCLINATION":"53.2204","BSTAR":"0.00002036900000"}];
